{
  "links" : {
    "next" : "https://api.nasa.gov/neo/rest/v1/feed?start_date=2016-09-09&end_date=2016-09-09&detailed=true&api_key=t0TVs3DtDT2H8Oy2Zy8m2eVrNsAVKAexjcZXUckd",
    "prev" : "https://api.nasa.gov/neo/rest/v1/feed?start_date=2016-09-07&end_date=2016-09-07&detailed=true&api_key=t0TVs3DtDT2H8Oy2Zy8m2eVrNsAVKAexjcZXUckd",
    "self" : "https://api.nasa.gov/neo/rest/v1/feed?start_date=2016-09-08&end_date=2016-09-08&detailed=true&api_key=t0TVs3DtDT2H8Oy2Zy8m2eVrNsAVKAexjcZXUckd"
  },
  "element_count" : 14,
  "near_earth_objects" : {
    "2016-09-08" : [ {
      "links" : {
        "self" : "https://api.nasa.gov/neo/rest/v1/neo/3759643?api_key=t0TVs3DtDT2H8Oy2Zy8m2eVrNsAVKAexjcZXUckd"
      },
      "neo_reference_id" : "3759643",
      "name" : "(2016 RM40)",
      "nasa_jpl_url" : "http://ssd.jpl.nasa.gov/sbdb.cgi?sstr=3759643",
      "absolute_magnitude_h" : 24.7,
      "estimated_diameter" : {
        "kilometers" : {
          "estimated_diameter_min" : 0.0305179233,
          "estimated_diameter_max" : 0.0682401509
        },
        "meters" : {
          "estimated_diameter_min" : 30.5179232594,
          "estimated_diameter_max" : 68.2401509401
        },
        "miles" : {
          "estimated_diameter_min" : 0.0189629525,
          "estimated_diameter_max" : 0.0424024508
        },
        "feet" : {
          "estimated_diameter_min" : 100.1244233463,
          "estimated_diameter_max" : 223.8850168104
        }
      },
      "is_potentially_hazardous_asteroid" : false,
      "close_approach_data" : [ {
        "close_approach_date" : "2016-09-08",
        "epoch_date_close_approach" : 1473318000000,
        "relative_velocity" : {
          "kilometers_per_second" : "23.1718858951",
          "kilometers_per_hour" : "83418.789222459",
          "miles_per_hour" : "51833.1915588107"
        },
        "miss_distance" : {
          "astronomical" : "0.0157765508",
          "lunar" : "6.1370782852",
          "kilometers" : "2360138.25",
          "miles" : "1466522"
        },
        "orbiting_body" : "Earth"
      } ],
      "orbital_data" : {
        "orbit_id" : "4",
        "orbit_determination_date" : "2017-08-10 06:20:10",
        "orbit_uncertainty" : "8",
        "minimum_orbit_intersection" : ".0126986",
        "jupiter_tisserand_invariant" : "3.023",
        "epoch_osculation" : "2457645.5",
        "eccentricity" : ".7616825230445291",
        "semi_major_axis" : "2.435410367624283",
        "inclination" : ".9645419054625249",
        "ascending_node_longitude" : "297.0046967184811",
        "orbital_period" : "1388.214743922289",
        "perihelion_distance" : ".580400854163415",
        "perihelion_argument" : "319.6165223567007",
        "aphelion_distance" : "4.290419881085151",
        "perihelion_time" : "2457594.456708384222",
        "mean_anomaly" : "13.23684614511537",
        "mean_motion" : ".2593258727269017",
        "equinox" : "J2000"
      }
    }, {
      "links" : {
        "self" : "https://api.nasa.gov/neo/rest/v1/neo/3759644?api_key=t0TVs3DtDT2H8Oy2Zy8m2eVrNsAVKAexjcZXUckd"
      },
      "neo_reference_id" : "3759644",
      "name" : "(2016 RO40)",
      "nasa_jpl_url" : "http://ssd.jpl.nasa.gov/sbdb.cgi?sstr=3759644",
      "absolute_magnitude_h" : 24.5,
      "estimated_diameter" : {
        "kilometers" : {
          "estimated_diameter_min" : 0.0334622374,
          "estimated_diameter_max" : 0.0748238376
        },
        "meters" : {
          "estimated_diameter_min" : 33.4622374455,
          "estimated_diameter_max" : 74.8238376074
        },
        "miles" : {
          "estimated_diameter_min" : 0.0207924639,
          "estimated_diameter_max" : 0.0464933628
        },
        "feet" : {
          "estimated_diameter_min" : 109.7842471007,
          "estimated_diameter_max" : 245.4850393757
        }
      },
      "is_potentially_hazardous_asteroid" : false,
      "close_approach_data" : [ {
        "close_approach_date" : "2016-09-08",
        "epoch_date_close_approach" : 1473318000000,
        "relative_velocity" : {
          "kilometers_per_second" : "14.8265773617",
          "kilometers_per_hour" : "53375.6785022597",
          "miles_per_hour" : "33165.5709004735"
        },
        "miss_distance" : {
          "astronomical" : "0.0400179677",
          "lunar" : "15.566988945",
          "kilometers" : "5986602.5",
          "miles" : "3719902.5"
        },
        "orbiting_body" : "Earth"
      } ],
      "orbital_data" : {
        "orbit_id" : "3",
        "orbit_determination_date" : "2017-04-06 08:23:49",
        "orbit_uncertainty" : "8",
        "minimum_orbit_intersection" : ".0176865",
        "jupiter_tisserand_invariant" : "3.276",
        "epoch_osculation" : "2457644.5",
        "eccentricity" : ".6487601891707837",
        "semi_major_axis" : "2.294427031342603",
        "inclination" : "3.828712952065525",
        "ascending_node_longitude" : "4.970983993748214",
        "orbital_period" : "1269.433054798084",
        "perihelion_distance" : ".8058941164502161",
        "perihelion_argument" : "284.1830277360296",
        "aphelion_distance" : "3.78295994623499",
        "perihelion_time" : "2457601.136636962031",
        "mean_anomaly" : "12.29746667984149",
        "mean_motion" : ".2835911658667667",
        "equinox" : "J2000"
      }
    }, {
      "links" : {
        "self" : "https://api.nasa.gov/neo/rest/v1/neo/3358223?api_key=t0TVs3DtDT2H8Oy2Zy8m2eVrNsAVKAexjcZXUckd"
      },
      "neo_reference_id" : "3358223",
      "name" : "(2006 VY2)",
      "nasa_jpl_url" : "http://ssd.jpl.nasa.gov/sbdb.cgi?sstr=3358223",
      "absolute_magnitude_h" : 22.7,
      "estimated_diameter" : {
        "kilometers" : {
          "estimated_diameter_min" : 0.0766575574,
          "estimated_diameter_max" : 0.1714115092
        },
        "meters" : {
          "estimated_diameter_min" : 76.6575573531,
          "estimated_diameter_max" : 171.4115092306
        },
        "miles" : {
          "estimated_diameter_min" : 0.0476327831,
          "estimated_diameter_max" : 0.1065101409
        },
        "feet" : {
          "estimated_diameter_min" : 251.5011804664,
          "estimated_diameter_max" : 562.3737359442
        }
      },
      "is_potentially_hazardous_asteroid" : false,
      "close_approach_data" : [ {
        "close_approach_date" : "2016-09-08",
        "epoch_date_close_approach" : 1473318000000,
        "relative_velocity" : {
          "kilometers_per_second" : "9.1245290808",
          "kilometers_per_hour" : "32848.3046910313",
          "miles_per_hour" : "20410.6591009355"
        },
        "miss_distance" : {
          "astronomical" : "0.2777142418",
          "lunar" : "108.0308456421",
          "kilometers" : "41545460",
          "miles" : "25815152"
        },
        "orbiting_body" : "Earth"
      } ],
      "orbital_data" : {
        "orbit_id" : "11",
        "orbit_determination_date" : "2017-04-06 09:07:40",
        "orbit_uncertainty" : "6",
        "minimum_orbit_intersection" : ".0758499",
        "jupiter_tisserand_invariant" : "6.573",
        "epoch_osculation" : "2458000.5",
        "eccentricity" : ".3771015365758616",
        "semi_major_axis" : ".8924375048209183",
        "inclination" : "14.56422880798156",
        "ascending_node_longitude" : "231.238900909218",
        "orbital_period" : "307.9393202707371",
        "perihelion_distance" : ".5558979504550221",
        "perihelion_argument" : "327.0394215010603",
        "aphelion_distance" : "1.228977059186815",
        "perihelion_time" : "2458152.279118325515",
        "mean_anomaly" : "182.5608780679715",
        "mean_motion" : "1.169061488099317",
        "equinox" : "J2000"
      }
    } ]
  }
}